{"type": "FeatureCollection", "features": [ {"type": "Feature", "properties": {"norad_id": 59598, "name": "GSAT0225 (GALILEO 29)", "group": "gnss", "lat": 0.8206898224343854, "lon": -74.47999359710565, "alt_km": 23215.89037806732, "timestamp": "2025-12-19T14:48:36.491314+00:00", "meta": {"OBJECT_NAME": "GSAT0225 (GALILEO 29)", "OBJECT_ID": "2024-079A", "EPOCH": "2025-12-16T09:22:38.225280", "MEAN_MOTION": 1.70475011, "ECCENTRICITY": 0.00021396, "INCLINATION": 55.0038, "RA_OF_ASC_NODE": 106.1932, "ARG_OF_PERICENTER": 182.0305, "MEAN_ANOMALY": 176.7742, "EPHEMERIS_TYPE": 0, "CLASSIFICATION_TYPE": "U", "NORAD_CAT_ID": 59598, "ELEMENT_SET_NO": 999, "REV_AT_EPOCH": 1019, "BSTAR": 0, "MEAN_MOTION_DOT": -1e-07, "MEAN_MOTION_DDOT": 0}, "tle": {"line1": "1 59598U 24079A   25350.39072020 -.00000010  00000+0  00000+0 0  9996", "line2": "2 59598  55.0038 106.1932 0002139 182.0305 176.7742  1.70475011 10196"}}, "geometry": {"type": "Point", "coordinates": [-74.47999359710565, 0.8206898224343854]}}, {"type": "Feature", "properties": {"norad_id": 59600, "name": "GSAT0227 (GALILEO 30)", "group": "gnss", "lat": 48.659169569459436, "lon": 158.78150726064865, "alt_km": 23210.682368223326, "timestamp": "2025-12-19T14:48:36.491325+00:00", "meta": {"OBJECT_NAME": "GSAT0227 (GALILEO 30)", "OBJECT_ID": "2024-079C", "EPOCH": "2025-12-17T17:58:49.575360", "MEAN_MOTION": 1.704749, "ECCENTRICITY": 0.00029705, "INCLINATION": 54.9996, "RA_OF_ASC_NODE": 106.1542, "ARG_OF_PERICENTER": 116.5176, "MEAN_ANOMALY": 243.4717, "EPHEMERIS_TYPE": 0, "CLASSIFICATION_TYPE": "U", "NORAD_CAT_ID": 59600, "ELEMENT_SET_NO": 999, "REV_AT_EPOCH": 1027, "BSTAR": 0, "MEAN_MOTION_DOT": -9e-08, "MEAN_MOTION_DDOT": 0}, "tle": {"line1": "1 59600U 24079C   25351.74918490 -.00000009  00000+0  00000+0 0  9998", "line2": "2 59600  54.9996 106.1542 0002970 116.5176 243.4717  1.70474900 10278"}}, "geometry": {"type": "Point", "coordinates": [158.78150726064865, 48.659169569459436]}}, {"type": "Feature", "properties": {"norad_id": 61182, "name": "GSAT0232 (GALILEO 32)", "group": "gnss", "lat": -54.19359814421846, "lon": 120.42287642291265, "alt_km": 23224.560232335025, "timestamp": "2025-12-19T14:48:36.491336+00:00", "meta": {"OBJECT_NAME": "GSAT0232 (GALILEO 32)", "OBJECT_ID": "2024-167A", "EPOCH": "2025-12-18T08:17:33.319392", "MEAN_MOTION": 1.70473695, "ECCENTRICITY": 0.0001893, "INCLINATION": 55.239, "RA_OF_ASC_NODE": 226.2771, "ARG_OF_PERICENTER": 209.3432, "MEAN_ANOMALY": 351.1487, "EPHEMERIS_TYPE": 0, "CLASSIFICATION_TYPE": "U", "NORAD_CAT_ID": 61182, "ELEMENT_SET_NO": 999, "REV_AT_EPOCH": 779, "BSTAR": 0, "MEAN_MOTION_DOT": 6.2e-07, "MEAN_MOTION_DDOT": 0}, "tle": {"line1": "1 61182U 24167A   25352.34552453  .00000062  00000+0  00000+0 0  9992", "line2": "2 61182  55.2390 226.2771 0001893 209.3432 351.1487  1.70473695  7799"}}, "geometry": {"type": "Point", "coordinates": [120.42287642291265, -54.19359814421846]}}, {"type": "Feature", "properties": {"norad_id": 61183, "name": "GSAT0226 (GALILEO 31)", "group": "gnss", "lat": 10.990238265328385, "lon": -125.99210217072769, "alt_km": 23221.208677346498, "timestamp": "2025-12-19T14:48:36.491349+00:00", "meta": {"OBJECT_NAME": "GSAT0226 (GALILEO 31)", "OBJECT_ID": "2024-167B", "EPOCH": "2025-12-19T04:09:25.934976", "MEAN_MOTION": 1.70473763, "ECCENTRICITY": 0.0001068, "INCLINATION": 55.2375, "RA_OF_ASC_NODE": 226.2599, "ARG_OF_PERICENTER": 106.7588, "MEAN_ANOMALY": 354.3657, "EPHEMERIS_TYPE": 0, "CLASSIFICATION_TYPE": "U", "NORAD_CAT_ID": 61183, "ELEMENT_SET_NO": 999, "REV_AT_EPOCH": 778, "BSTAR": 0, "MEAN_MOTION_DOT": 6.7e-07, "MEAN_MOTION_DDOT": 0}, "tle": {"line1": "1 61183U 24167B   25353.17321684  .00000067  00000+0  00000+0 0  9990", "line2": "2 61183  55.2375 226.2599 0001068 106.7588 354.3657  1.70473763  7786"}}, "geometry": {"type": "Point", "coordinates": [-125.99210217072769, 10.990238265328385]}}, {"type": "Feature", "properties": {"norad_id": 61186, "name": "BEIDOU-3 M25 (C47)", "group": "gnss", "lat": 20.789459817240004, "lon": -35.91473831098699, "alt_km": 21524.67473019191, "timestamp": "2025-12-19T14:48:36.491363+00:00", "meta": {"OBJECT_NAME": "BEIDOU-3 M25 (C47)", "OBJECT_ID": "2024-168B", "EPOCH": "2025-12-19T07:17:41.808768", "MEAN_MOTION": 1.86230286, "ECCENTRICITY": 0.00054499, "INCLINATION": 54.6362, "RA_OF_ASC_NODE": 308.493, "ARG_OF_PERICENTER": 299.3686, "MEAN_ANOMALY": 236.4152, "EPHEMERIS_TYPE": 0, "CLASSIFICATION_TYPE": "U", "NORAD_CAT_ID": 61186, "ELEMENT_SET_NO": 999, "REV_AT_EPOCH": 843, "BSTAR": 0, "MEAN_MOTION_DOT": -7.8e-07, "MEAN_MOTION_DDOT": 0}, "tle": {"line1": "1 61186U 24168B   25353.30395612 -.00000078  00000+0  00000+0 0  9994", "line2": "2 61186  54.6362 308.4930 0005449 299.3686 236.4152  1.86230286  8436"}}, "geometry": {"type": "Point", "coordinates": [-35.91473831098699, 20.789459817240004]}}, {"type": "Feature", "properties": {"norad_id": 61187, "name": "BEIDOU-3 M27 (C49)", "group": "gnss", "lat": 15.615058012381265, "lon": 117.00136987195349, "alt_km": 21533.297933840262, "timestamp": "2025-12-19T14:48:36.491374+00:00", "meta": {"OBJECT_NAME": "BEIDOU-3 M27 (C49)", "OBJECT_ID": "2024-168C", "EPOCH": "2025-12-18T11:15:38.296800", "MEAN_MOTION": 1.86230443, "ECCENTRICITY": 0.00025049, "INCLINATION": 54.6324, "RA_OF_ASC_NODE": 308.5054, "ARG_OF_PERICENTER": 339.4033, "MEAN_ANOMALY": 131.6614, "EPHEMERIS_TYPE": 0, "CLASSIFICATION_TYPE": "U", "NORAD_CAT_ID": 61187, "ELEMENT_SET_NO": 999, "REV_AT_EPOCH": 589, "BSTAR": 0, "MEAN_MOTION_DOT": -8.4e-07, "MEAN_MOTION_DDOT": 0}, "tle": {"line1": "1 61187U 24168C   25352.46919325 -.00000084  00000+0  00000+0 0  9991", "line2": "2 61187  54.6324 308.5054 0002504 339.4033 131.6614  1.86230443  5895"}}, "geometry": {"type": "Point", "coordinates": [117.00136987195349, 15.615058012381265]}}, {"type": "Feature", "properties": {"norad_id": 62339, "name": "GPS BIII-7  (PRN 01)", "group": "gnss", "lat": -5.30642208476519, "lon": 165.19377223382548, "alt_km": 20213.769297385472, "timestamp": "2025-12-19T14:48:36.491385+00:00", "meta": {"OBJECT_NAME": "GPS BIII-7  (PRN 01)", "OBJECT_ID": "2024-242A", "EPOCH": "2025-12-18T08:46:28.895808", "MEAN_MOTION": 2.00568182, "ECCENTRICITY": 0.0012509, "INCLINATION": 54.922, "RA_OF_ASC_NODE": 341.5124, "ARG_OF_PERICENTER": 345.6877, "MEAN_ANOMALY": 17.1618, "EPHEMERIS_TYPE": 0, "CLASSIFICATION_TYPE": "U", "NORAD_CAT_ID": 62339, "ELEMENT_SET_NO": 999, "REV_AT_EPOCH": 763, "BSTAR": 0, "MEAN_MOTION_DOT": -8.5e-07, "MEAN_MOTION_DDOT": 0}, "tle": {"line1": "1 62339U 24242A   25352.36561222 -.00000085  00000+0  00000+0 0  9993", "line2": "2 62339  54.9220 341.5124 0012509 345.6877  17.1618  2.00568182  7636"}}, "geometry": {"type": "Point", "coordinates": [165.19377223382548, -5.30642208476519]}}, {"type": "Feature", "properties": {"norad_id": 62850, "name": "NVS-02 (IRNSS-1K)", "group": "gnss", "lat": -7.0824526571425315, "lon": 164.08664306460523, "alt_km": 35279.377703673585, "timestamp": "2025-12-19T14:48:36.491399+00:00", "meta": {"OBJECT_NAME": "NVS-02 (IRNSS-1K)", "OBJECT_ID": "2025-020A", "EPOCH": "2025-12-18T23:33:15.739488", "MEAN_MOTION": 2.17599842, "ECCENTRICITY": 0.73473707, "INCLINATION": 20.9679, "RA_OF_ASC_NODE": 325.4007, "ARG_OF_PERICENTER": 30.2803, "MEAN_ANOMALY": 356.7502, "EPHEMERIS_TYPE": 0, "CLASSIFICATION_TYPE": "U", "NORAD_CAT_ID": 62850, "ELEMENT_SET_NO": 999, "REV_AT_EPOCH": 705, "BSTAR": 0.00015278311, "MEAN_MOTION_DOT": 2.77e-06, "MEAN_MOTION_DDOT": 0}, "tle": {"line1": "1 62850U 25020A   25352.98143217  .00000277  00000+0  15278-3 0  9993", "line2": "2 62850  20.9679 325.4007 7347370  30.2803 356.7502  2.17599842  7051"}}, "geometry": {"type": "Point", "coordinates": [164.08664306460523, -7.0824526571425315]}}, {"type": "Feature", "properties": {"norad_id": 62876, "name": "QZS-6 (QZSS/PRN 200)", "group": "gnss", "lat": -0.0024348530447837694, "lon": 41.15894385660186, "alt_km": 35789.312288939334, "timestamp": "2025-12-19T14:48:36.491411+00:00", "meta": {"OBJECT_NAME": "QZS-6 (QZSS/PRN 200)", "OBJECT_ID": "2025-023A", "EPOCH": "2025-12-18T15:26:14.366112", "MEAN_MOTION": 1.00273059, "ECCENTRICITY": 0.00014897, "INCLINATION": 0.0457, "RA_OF_ASC_NODE": 67.1424, "ARG_OF_PERICENTER": 210.3648, "MEAN_ANOMALY": 132.0918, "EPHEMERIS_TYPE": 0, "CLASSIFICATION_TYPE": "U", "NORAD_CAT_ID": 62876, "ELEMENT_SET_NO": 999, "REV_AT_EPOCH": 314, "BSTAR": 0, "MEAN_MOTION_DOT": -2.09e-06, "MEAN_MOTION_DDOT": 0}, "tle": {"line1": "1 62876U 25023A   25352.64322183 -.00000209  00000+0  00000+0 0  9997", "line2": "2 62876   0.0457  67.1424 0001489 210.3648 132.0918  1.00273059  3146"}}, "geometry": {"type": "Point", "coordinates": [41.15894385660186, -0.0024348530447837694]}}, {"type": "Feature", "properties": {"norad_id": 63130, "name": "COSMOS 2584 (704K)", "group": "gnss", "lat": 22.30777262887941, "lon": -112.10435986682346, "alt_km": 19118.532597554957, "timestamp": "2025-12-19T14:48:36.491423+00:00", "meta": {"OBJECT_NAME": "COSMOS 2584 (704K)", "OBJECT_ID": "2025-042A", "EPOCH": "2025-12-18T11:25:35.911776", "MEAN_MOTION": 2.13103072, "ECCENTRICITY": 0.00077091, "INCLINATION": 64.979, "RA_OF_ASC_NODE": 78.9506, "ARG_OF_PERICENTER": 218.5301, "MEAN_ANOMALY": 141.4378, "EPHEMERIS_TYPE": 0, "CLASSIFICATION_TYPE": "U", "NORAD_CAT_ID": 63130, "ELEMENT_SET_NO": 999, "REV_AT_EPOCH": 619, "BSTAR": 0, "MEAN_MOTION_DOT": -3.8e-07, "MEAN_MOTION_DDOT": 0}, "tle": {"line1": "1 63130U 25042A   25352.47611009 -.00000038  00000+0  00000+0 0  9991", "line2": "2 63130  64.9790  78.9506 0007709 218.5301 141.4378  2.13103072  6191"}}, "geometry": {"type": "Point", "coordinates": [-112.10435986682346, 22.30777262887941]}}]}